*******************************************************************************
JPL/HORIZONS             4436 Ortizmoreno (1983 EX)        2023-Sep-04 11:29:14
Rec #:    4436 (+COV) Soln.date: 2023-Aug-23_18:37:13   # obs: 3353 (1951-2023)
 
IAU76/J2000 helio. ecliptic osc. elements (au, days, deg., period=Julian yrs):
 
  EPOCH=  2457724.5 ! 2016-Dec-02.00 (TDB)         Residual RMS= .24268
   EC= .05498938214239043  QR= 3.06975397553726    TP= 2457916.088870401
   OM= 90.50542025103108   W=  27.96814378343598   IN= 17.32947396681408
   A= 3.248380407086387    MA= 327.746709572167    ADIST= 3.427006838635514
   PER= 5.85475            N= .168346368           ANGMOM= .030956886
   DAN= 3.08856            DDN= 3.40387            L= 117.3855653
   B= 8.030102599999999    MOID= 2.0947299         TP= 2017-Jun-11.5888704010
 
Asteroid physical parameters (km, seconds, rotational period in hours):
   GM= n.a.                RAD= 15.37              ROTPER= 8.24
   H= 11.47                G= .150                 B-V= n.a.
                           ALBEDO= .0744           STYP= n.a.

ASTEROID comments: 
1: soln ref.= JPL#55, OCC=0
2: source=ORB
*******************************************************************************


*******************************************************************************
Ephemeris / API_USER Mon Sep  4 11:29:14 2023 Pasadena, USA      / Horizons
*******************************************************************************
Target body name: 4436 Ortizmoreno (1983 EX)      {source: JPL#55}
Center body name: Solar System Barycenter (0)     {source: DE441}
Center-site name: BODY CENTER
*******************************************************************************
Start time      : A.D. 2023-Aug-12 00:00:00.0000 TDB
Stop  time      : A.D. 2023-Aug-13 00:00:00.0000 TDB
Step-size       : 2880 minutes
*******************************************************************************
Center geodetic : 0.0, 0.0, 0.0                   {E-lon(deg),Lat(deg),Alt(km)}
Center cylindric: 0.0, 0.0, 0.0                   {E-lon(deg),Dxy(km),Dz(km)}
Center radii    : (undefined)
Small perturbers: Yes                             {source: SB441-N16}
Output units    : KM-S
Calendar mode   : Mixed Julian/Gregorian
Output type     : GEOMETRIC cartesian states
Output format   : 2 (position and velocity)
Reference frame : Ecliptic of J2000.0
*******************************************************************************
Initial IAU76/J2000 heliocentric ecliptic osculating elements (au, days, deg.):
  EPOCH=  2457724.5 ! 2016-Dec-02.00 (TDB)         Residual RMS= .24268        
   EC= .05498938214239043  QR= 3.06975397553726    TP= 2457916.088870401       
   OM= 90.50542025103108   W=  27.96814378343598   IN= 17.32947396681408       
  Equivalent ICRF heliocentric cartesian coordinates (au, au/d):
   X= 3.772462991215051E-01  Y= 2.871165381271013E+00  Z= 1.107284380583290E+00
  VX=-9.491533976188713E-03 VY=-2.817009438424826E-04 VZ= 3.102824210625290E-03
Asteroid physical parameters (km, seconds, rotational period in hours):        
   GM= n.a.                RAD= 15.37              ROTPER= 8.24                
   H= 11.47                G= .150                 B-V= n.a.                   
                           ALBEDO= .0744           STYP= n.a.                  
*******************************************************************************
JDTDB
   X     Y     Z
   VX    VY    VZ
*******************************************************************************
$$SOE
2460168.500000000 = A.D. 2023-Aug-12 00:00:00.0000 TDB 
 X =-3.301257880399584E+08 Y = 3.009897835696028E+08 Z = 1.019451060769525E+08
 VX=-1.116404517237752E+01 VY=-1.304381722714727E+01 VZ= 3.507550148262709E+00
$$EOE
*******************************************************************************
 
TIME

  Barycentric Dynamical Time ("TDB" or T_eph) output was requested. This
continuous coordinate time is equivalent to the relativistic proper time
of a clock at rest in a reference frame co-moving with the solar system
barycenter but outside the system's gravity well. It is the independent
variable in the solar system relativistic equations of motion.

  TDB runs at a uniform rate of one SI second per second and is independent
of irregularities in Earth's rotation.
 
CALENDAR SYSTEM

  Mixed calendar mode was active such that calendar dates after AD 1582-Oct-15
(if any) are in the modern Gregorian system. Dates prior to 1582-Oct-5 (if any)
are in the Julian calendar system, which is automatically extended for dates
prior to its adoption on 45-Jan-1 BC.  The Julian calendar is useful for
matching historical dates. The Gregorian calendar more accurately corresponds
to the Earth's orbital motion and seasons. A "Gregorian-only" calendar mode is
available if such physical events are the primary interest.

REFERENCE FRAME AND COORDINATES

  Ecliptic at the standard reference epoch

    Reference epoch: J2000.0
    X-Y plane: adopted Earth orbital plane at the reference epoch
               Note: IAU76 obliquity of 84381.448 arcseconds wrt ICRF X-Y plane
    X-axis   : ICRF
    Z-axis   : perpendicular to the X-Y plane in the directional (+ or -) sense
               of Earth's north pole at the reference epoch.

  Symbol meaning:

    JDTDB    Julian Day Number, Barycentric Dynamical Time
      X      X-component of position vector (km)
      Y      Y-component of position vector (km)
      Z      Z-component of position vector (km)
      VX     X-component of velocity vector (km/sec)                           
      VY     Y-component of velocity vector (km/sec)                           
      VZ     Z-component of velocity vector (km/sec)                           

ABERRATIONS AND CORRECTIONS

 Geometric state vectors have NO corrections or aberrations applied.

Computations by ...

    Solar System Dynamics Group, Horizons On-Line Ephemeris System
    4800 Oak Grove Drive, Jet Propulsion Laboratory
    Pasadena, CA  91109   USA

    General site: https://ssd.jpl.nasa.gov/
    Mailing list: https://ssd.jpl.nasa.gov/email_list.html
    System news : https://ssd.jpl.nasa.gov/horizons/news.html
    User Guide  : https://ssd.jpl.nasa.gov/horizons/manual.html
    Connect     : browser        https://ssd.jpl.nasa.gov/horizons/app.html#/x
                  API            https://ssd-api.jpl.nasa.gov/doc/horizons.html
                  command-line   telnet ssd.jpl.nasa.gov 6775
                  e-mail/batch   https://ssd.jpl.nasa.gov/ftp/ssd/hrzn_batch.txt
                  scripts        https://ssd.jpl.nasa.gov/ftp/ssd/SCRIPTS
    Author      : Jon.D.Giorgini@jpl.nasa.gov
*******************************************************************************
